STARLINK-31213          
1 58860U 24019H   26068.56317980  .00000352  00000+0  22325-4 0  9991
2 58860  43.0024 249.5899 0001359 272.2710  87.7986 15.27576365119066
KUIPER-00226            
1 67785U 26030X   26068.62629313  .00046834  00000+0  15530-2 0  9998
2 67785  51.8814 220.1252 0017713  64.2781 296.0030 15.30655594  5078
